{
	"type" : "FeatureCollection",
	"name" : "DENGUE_CLUSTER",
	"features" : [
		{
			"type" : "Feature",
			"geometry" : {
				"type" : "Polygon",
				"coordinates" : [
					[
						[ 103.87683871288627, 1.3819224728986073 ],
						[ 103.87611586361119, 1.3819783323922543 ],
						[ 103.8761501620755, 1.3823724255398515 ],
						[ 103.87583288650961, 1.3823957720042455 ],
						[ 103.87528357120125, 1.3825807929924376 ],
						[ 103.87489978762503, 1.3827620478858924 ],
						[ 103.87348795848165, 1.3829861881993244 ],
						[ 103.87255290107625, 1.3831389835643786 ],
						[ 103.87248365121903, 1.3829034051344762 ],
						[ 103.87243579791931, 1.3828677034471624 ],
						[ 103.8723514175511, 1.3825571091752855 ],
						[ 103.87229173626318, 1.382573112882094 ],
						[ 103.87218772736762, 1.382257022202412 ],
						[ 103.87318847797098, 1.3820271388010756 ],
						[ 103.8731102360883, 1.381739795650321 ],
						[ 103.87292590308677, 1.3817755663442273 ],
						[ 103.87291855767954, 1.3815307280070335 ],
						[ 103.87262825856172, 1.381516113812155 ],
						[ 103.87267255176182, 1.3810101169026943 ],
						[ 103.87114877902704, 1.3809518066927375 ],
						[ 103.87115726064083, 1.3805519890386155 ],
						[ 103.87119513870613, 1.380013436951414 ],
						[ 103.8710062053252, 1.3800060784469816 ],
						[ 103.87101776051911, 1.3797479845298908 ],
						[ 103.87151013960211, 1.3797566512901196 ],
						[ 103.87180786709794, 1.379776522575967 ],
						[ 103.87221919943451, 1.3797925882033601 ],
						[ 103.8724191062329, 1.3798029525357753 ],
						[ 103.87363954444172, 1.3798364812346928 ],
						[ 103.87367215860844, 1.3787946162833156 ],
						[ 103.87488055685826, 1.37885944279065 ],
						[ 103.87532514921953, 1.3788970664304452 ],
						[ 103.87614036801311, 1.3799844481934032 ],
						[ 103.87674601275293, 1.380658220845448 ],
						[ 103.8768028206401, 1.3815005986364708 ],
						[ 103.87683871288627, 1.3819224728986073 ]
					]
				]
			},
			"properties" : {
				"OBJECTID" : 523848,
				"LOCALITY" : "Luxus Hill Ave, Dr, View / Seletar Green Ave, Walk ",
				"CASE_SIZE" : 42,
				"NAME" : "Dengue_Cluster",
				"HYPERLINK" : "https://www.nea.gov.sg/dengue-zika/dengue/dengue-clusters",
				"HOMES" : "Domestic container, Bin, Flower pot, Vase, Ornamental container, Flower pot plate, Closed perimeter drain, Pail, Manhole cover",
				"PUBLIC_PLACES" : "Pot, Discarded plastic cup",
				"CONSTRUCTION_SITES" : null,
				"INC_CRC" : "A80EE9CCDB5AAA08",
				"FMEL_UPD_D" : "20260813160811",
				"SHAPE.AREA" : 187171.073759495,
				"SHAPE.LEN" : 2238.7661199026
			}
		},
		{
			"type" : "Feature",
			"geometry" : {
				"type" : "Polygon",
				"coordinates" : [
					[
						[ 103.86983011273416, 1.380927349917985 ],
						[ 103.8698028381313, 1.3807389061997837 ],
						[ 103.86984251130063, 1.3796925437505962 ],
						[ 103.87101532988225, 1.3797483327487774 ],
						[ 103.87100665131244, 1.3800247996793111 ],
						[ 103.87119137755316, 1.3800309997607525 ],
						[ 103.87115666341754, 1.3805727776636154 ],
						[ 103.87114748503696, 1.3809490818647063 ],
						[ 103.86983011273416, 1.380927349917985 ]
					]
				]
			},
			"properties" : {
				"OBJECTID" : 523849,
				"LOCALITY" : "Luxus Hill Ave / Seletar Green View",
				"CASE_SIZE" : 3,
				"NAME" : "Dengue_Cluster",
				"HYPERLINK" : "https://www.nea.gov.sg/dengue-zika/dengue/dengue-clusters",
				"HOMES" : null,
				"PUBLIC_PLACES" : null,
				"CONSTRUCTION_SITES" : null,
				"INC_CRC" : "BD90561B4556BA9C",
				"FMEL_UPD_D" : "20260813160811",
				"SHAPE.AREA" : 19557.84861942,
				"SHAPE.LEN" : 566.943628215964
			}
		},
		{
			"type" : "Feature",
			"geometry" : {
				"type" : "Polygon",
				"coordinates" : [
					[
						[ 103.76280410069025, 1.387177408279126 ],
						[ 103.76305615278724, 1.387340515968241 ],
						[ 103.76330646772698, 1.3875730551814172 ],
						[ 103.76357881183831, 1.3878798143255588 ],
						[ 103.76375987426455, 1.3880893091612476 ],
						[ 103.76407411700458, 1.3884379686529937 ],
						[ 103.76420430301292, 1.388616038943724 ],
						[ 103.7642774465568, 1.3887916467785946 ],
						[ 103.76431054639556, 1.3889512299228026 ],
						[ 103.76432551027476, 1.389141272400069 ],
						[ 103.76430755409153, 1.3893552551238655 ],
						[ 103.76425517986502, 1.3896874534192207 ],
						[ 103.7642222585908, 1.3898146475553064 ],
						[ 103.76415800879299, 1.389959797808507 ],
						[ 103.76334397159482, 1.3897730289505181 ],
						[ 103.76343179097661, 1.3893574078260227 ],
						[ 103.76328898438815, 1.3891518480863143 ],
						[ 103.76331303099678, 1.3890978881488267 ],
						[ 103.76331644092042, 1.3890428025676964 ],
						[ 103.76328525797355, 1.3889998199555835 ],
						[ 103.76323697961034, 1.3889565881329813 ],
						[ 103.76317497104658, 1.388942067630482 ],
						[ 103.763120803497, 1.3889569165641196 ],
						[ 103.76308424729753, 1.3889973604135275 ],
						[ 103.76306161821189, 1.3890353701326357 ],
						[ 103.76191781809298, 1.388430485605897 ],
						[ 103.76227246302673, 1.3879456562621988 ],
						[ 103.76247447547208, 1.387647872658515 ],
						[ 103.76280410069025, 1.387177408279126 ]
					]
				]
			},
			"properties" : {
				"OBJECTID" : 523850,
				"LOCALITY" : "Senja Cl (Blk 647A, 647B)",
				"CASE_SIZE" : 2,
				"NAME" : "Dengue_Cluster",
				"HYPERLINK" : "https://www.nea.gov.sg/dengue-zika/dengue/dengue-clusters",
				"HOMES" : null,
				"PUBLIC_PLACES" : null,
				"CONSTRUCTION_SITES" : null,
				"INC_CRC" : "33147C311C77360D",
				"FMEL_UPD_D" : "20260813160811",
				"SHAPE.AREA" : 39603.461716045,
				"SHAPE.LEN" : 908.669767077424
			}
		},
		{
			"type" : "Feature",
			"geometry" : {
				"type" : "Polygon",
				"coordinates" : [
					[
						[ 103.70827335172915, 1.3424383007204117 ],
						[ 103.70804207259752, 1.3427767970476945 ],
						[ 103.70668934109658, 1.341863792182502 ],
						[ 103.7072622849555, 1.3409857793204998 ],
						[ 103.70722513331621, 1.3409483024297604 ],
						[ 103.70698028844157, 1.340853474573117 ],
						[ 103.70714478068099, 1.3404223247667095 ],
						[ 103.70730266656368, 1.340081049222201 ],
						[ 103.707631797296, 1.339604961982544 ],
						[ 103.70788805867663, 1.339815071228692 ],
						[ 103.70829977611437, 1.3400385413513534 ],
						[ 103.70897868533207, 1.3402741543854655 ],
						[ 103.70943534021666, 1.340453901610973 ],
						[ 103.70928959937396, 1.340797510288247 ],
						[ 103.70894589352528, 1.3414995917441714 ],
						[ 103.7085511787582, 1.3420473338427474 ],
						[ 103.70827335172915, 1.3424383007204117 ]
					]
				]
			},
			"properties" : {
				"OBJECTID" : 523851,
				"LOCALITY" : "Jurong West Ctrl 3 (Blk 697A, 697C)",
				"CASE_SIZE" : 2,
				"NAME" : "Dengue_Cluster",
				"HYPERLINK" : "https://www.nea.gov.sg/dengue-zika/dengue/dengue-clusters",
				"HOMES" : null,
				"PUBLIC_PLACES" : null,
				"CONSTRUCTION_SITES" : null,
				"INC_CRC" : "29C75029A6BFAFE9",
				"FMEL_UPD_D" : "20260807152606",
				"SHAPE.AREA" : 58208.41406612,
				"SHAPE.LEN" : 1013.87667180956
			}
		},
		{
			"type" : "Feature",
			"geometry" : {
				"type" : "Polygon",
				"coordinates" : [
					[
						[ 103.85868717592409, 1.382719161371197 ],
						[ 103.85849536017005, 1.3789949612481034 ],
						[ 103.85861807445394, 1.377685548292911 ],
						[ 103.85877325985277, 1.376584608089908 ],
						[ 103.86307073773948, 1.3778615201789626 ],
						[ 103.8650413087854, 1.3783330481285452 ],
						[ 103.86479594209095, 1.3793942810519921 ],
						[ 103.86504084856934, 1.3809012331955648 ],
						[ 103.86422790530123, 1.3810139946533635 ],
						[ 103.86429435728843, 1.381269598721765 ],
						[ 103.864342042627, 1.3814610790998965 ],
						[ 103.86436435557079, 1.3815641256658027 ],
						[ 103.86440332306671, 1.3817646145269606 ],
						[ 103.86451255903903, 1.3823725483123235 ],
						[ 103.86385602469606, 1.3826884738713916 ],
						[ 103.86439430595458, 1.3828775874571824 ],
						[ 103.86461591363616, 1.3832351366130742 ],
						[ 103.86403539610767, 1.383570826091382 ],
						[ 103.86412848487423, 1.3841941261453132 ],
						[ 103.86407938065899, 1.3843527630925445 ],
						[ 103.86304593656517, 1.3850505881741961 ],
						[ 103.86288381845543, 1.3847818765232471 ],
						[ 103.86282506985773, 1.3847327087946384 ],
						[ 103.86281476526123, 1.3847546478911865 ],
						[ 103.86207014461131, 1.3849363121788578 ],
						[ 103.86202148392869, 1.384853137505205 ],
						[ 103.86202803568241, 1.3847981267684235 ],
						[ 103.86162719835943, 1.384747130910048 ],
						[ 103.86148547250876, 1.3859083035031503 ],
						[ 103.86111237503276, 1.3858638792429077 ],
						[ 103.86103391825459, 1.3864577606692277 ],
						[ 103.86072389459211, 1.386423279088576 ],
						[ 103.86067212957445, 1.386830245324401 ],
						[ 103.8590535042424, 1.3866299939662583 ],
						[ 103.85904583588412, 1.3863055724320257 ],
						[ 103.85851860499064, 1.3862915116552477 ],
						[ 103.85853436768684, 1.386109060556275 ],
						[ 103.85864142752179, 1.3860104122785017 ],
						[ 103.85864803656335, 1.3855884169375485 ],
						[ 103.85865179545647, 1.3853485171421753 ],
						[ 103.85866056111708, 1.3849301338058553 ],
						[ 103.8586892409517, 1.3838292664679186 ],
						[ 103.85868717592409, 1.382719161371197 ]
					]
				]
			},
			"properties" : {
				"OBJECTID" : 523852,
				"LOCALITY" : "Lilac Dr, Walk / Mimosa Cres, Rd (Mimosa Pk) / Mimosa Dr, Pl, Rd, Ter, Vale, View, Walk / Nim Rd / Nim Rd (Nim Gdns) / Pollen Cres",
				"CASE_SIZE" : 49,
				"NAME" : "Dengue_Cluster",
				"HYPERLINK" : "https://www.nea.gov.sg/dengue-zika/dengue/dengue-clusters",
				"HOMES" : "Flower pot, Domestic container, Earthen jar, Toilet bowl, Vase, Flower pot plate, Planter box, Canvas sheet, Bowl, Ornamental container, Incense bin, Refuse bin, Tyre, Closed other drain, Storage box, Pail",
				"PUBLIC_PLACES" : "Canvas sheet, Water storage container, Water puddle, Tree holes/structure, Inspection chamber cover, Open perimeter drain, Gully trap",
				"CONSTRUCTION_SITES" : "Domestic container",
				"INC_CRC" : "40640BF0CB099C87",
				"FMEL_UPD_D" : "20260811154729",
				"SHAPE.AREA" : 597862.867945255,
				"SHAPE.LEN" : 3618.11617132559
			}
		},
		{
			"type" : "Feature",
			"geometry" : {
				"type" : "Polygon",
				"coordinates" : [
					[
						[ 103.86013838309819, 1.3872257244431383 ],
						[ 103.86035171768903, 1.387136118515583 ],
						[ 103.86064539863067, 1.3870578776846438 ],
						[ 103.86072457033217, 1.3864241970102273 ],
						[ 103.86103665706958, 1.3864537904787828 ],
						[ 103.861115775324, 1.3858706284717421 ],
						[ 103.86184141538044, 1.3859613383619271 ],
						[ 103.86211685902619, 1.385991039751174 ],
						[ 103.86285962901685, 1.3858161627187908 ],
						[ 103.86295302468653, 1.3862061043288825 ],
						[ 103.86319840538711, 1.3861470842391113 ],
						[ 103.86337521901926, 1.3864215058294347 ],
						[ 103.86374020106237, 1.3870596176877046 ],
						[ 103.86385890257651, 1.3874438641458295 ],
						[ 103.86371900098486, 1.3874855643744886 ],
						[ 103.86380913002718, 1.387765366201707 ],
						[ 103.86379278032672, 1.3878283616982852 ],
						[ 103.86384678666462, 1.3881137855174224 ],
						[ 103.86368710061473, 1.3881204536525922 ],
						[ 103.86381242957128, 1.3886050835243686 ],
						[ 103.863276427387, 1.3887527495483094 ],
						[ 103.86350463173396, 1.3890243090548666 ],
						[ 103.86218968436067, 1.3894197741236156 ],
						[ 103.8616336149056, 1.3895721915528352 ],
						[ 103.86114888313153, 1.3896963565794649 ],
						[ 103.86102053318594, 1.389327549401429 ],
						[ 103.86078050133807, 1.3889976610198478 ],
						[ 103.86053174663388, 1.38918006328791 ],
						[ 103.86013279400261, 1.3885873874735075 ],
						[ 103.86035604110016, 1.388434471426207 ],
						[ 103.86013424350732, 1.3881174500544062 ],
						[ 103.86055507353802, 1.387829937939069 ],
						[ 103.86013838309819, 1.3872257244431383 ]
					]
				]
			},
			"properties" : {
				"OBJECTID" : 523853,
				"LOCALITY" : "Begonia Dr, Rd",
				"CASE_SIZE" : 3,
				"NAME" : "Dengue_Cluster",
				"HYPERLINK" : "https://www.nea.gov.sg/dengue-zika/dengue/dengue-clusters",
				"HOMES" : null,
				"PUBLIC_PLACES" : null,
				"CONSTRUCTION_SITES" : null,
				"INC_CRC" : "36E65EF71DF390E2",
				"FMEL_UPD_D" : "20260812170437",
				"SHAPE.AREA" : 128771.707319685,
				"SHAPE.LEN" : 1609.36340733865
			}
		},
		{
			"type" : "Feature",
			"geometry" : {
				"type" : "Polygon",
				"coordinates" : [
					[
						[ 103.83552747943266, 1.3932462408739554 ],
						[ 103.83493342540126, 1.3936096881068039 ],
						[ 103.83441521922177, 1.393628172701623 ],
						[ 103.8346555283299, 1.3924603129415905 ],
						[ 103.83419429182443, 1.3911685529100355 ],
						[ 103.83325567826711, 1.3888170408214202 ],
						[ 103.83297782743999, 1.3880537990579052 ],
						[ 103.83411283008579, 1.3877632059539784 ],
						[ 103.83421991260344, 1.3877224823983307 ],
						[ 103.83403619827881, 1.386900936358308 ],
						[ 103.83506118009208, 1.3862989060342223 ],
						[ 103.83511051083067, 1.386011143651559 ],
						[ 103.8358673686557, 1.3855238977728783 ],
						[ 103.83593852236093, 1.385474071751445 ],
						[ 103.8362951875919, 1.3852011269890139 ],
						[ 103.83668524994054, 1.3848033029982476 ],
						[ 103.83705895710264, 1.3843554938554983 ],
						[ 103.83732711222906, 1.3840210360306346 ],
						[ 103.83769688855133, 1.3844318753586502 ],
						[ 103.83876940942521, 1.3854553348224097 ],
						[ 103.83939365454052, 1.3860554467464323 ],
						[ 103.83997081144598, 1.386507925707535 ],
						[ 103.84029064435606, 1.3867618232105703 ],
						[ 103.83987384435873, 1.38720323098281 ],
						[ 103.84011405336047, 1.3873909753951403 ],
						[ 103.83992935965782, 1.3876437610736143 ],
						[ 103.83996951177956, 1.3876816167393642 ],
						[ 103.83979896351282, 1.3879610150908153 ],
						[ 103.84004236618519, 1.3881687396171056 ],
						[ 103.83988043864706, 1.3883767745745548 ],
						[ 103.83982060229542, 1.3883443433380984 ],
						[ 103.83963340587174, 1.3885675843266339 ],
						[ 103.83948627340523, 1.3884499793951617 ],
						[ 103.83915827762736, 1.3889099262667521 ],
						[ 103.83994426951128, 1.3894997360038694 ],
						[ 103.83985310290403, 1.389643495789765 ],
						[ 103.84034540522856, 1.390052471342831 ],
						[ 103.83989277916355, 1.3904599284821246 ],
						[ 103.83983343541959, 1.39051509033702 ],
						[ 103.83934940991078, 1.3908249520989813 ],
						[ 103.83552747943266, 1.3932462408739554 ]
					]
				]
			},
			"properties" : {
				"OBJECTID" : 523845,
				"LOCALITY" : "Countryside Rd, Walk / Florissa Pk / Lentor Ave, Cres, Green, Gr, Ln, Plain, Rd, St, Ter, Vale, Walk, Way / Lentor Loop (Bullion Pk)",
				"CASE_SIZE" : 243,
				"NAME" : "Dengue_Cluster",
				"HYPERLINK" : "https://www.nea.gov.sg/dengue-zika/dengue/dengue-clusters",
				"HOMES" : "Bin, Dish tray, Ornamental container, Domestic container, Flower pot plate, Mopping pail, Pipe, Toilet bowl, Canvas/plastic sheet, Air con tray, Vase, Toilet brush holder, Watering can, Pail, Storage box, Earthen jar, Trough, Fountain, Tree hole",
				"PUBLIC_PLACES" : "Gully trap, Open drain, Discarded flowerpot, Fallen fond, Discarded item, Overturned refuse bin",
				"CONSTRUCTION_SITES" : "Toilet bowl, Road cutter machine",
				"INC_CRC" : "F52BED05BAC96A68",
				"FMEL_UPD_D" : "20260814160603",
				"SHAPE.AREA" : 495165.485032955,
				"SHAPE.LEN" : 3179.8179950799
			}
		},
		{
			"type" : "Feature",
			"geometry" : {
				"type" : "Polygon",
				"coordinates" : [
					[
						[ 103.87230310594522, 1.4006415385348656 ],
						[ 103.8716376171058, 1.4006917300116764 ],
						[ 103.87099660381816, 1.4007427863795976 ],
						[ 103.87057907500291, 1.400737770257729 ],
						[ 103.8704468702184, 1.400735464431761 ],
						[ 103.87009383943438, 1.4007064254811457 ],
						[ 103.86983691475689, 1.4006825552206492 ],
						[ 103.87014524732288, 1.3999591361456571 ],
						[ 103.87036244604708, 1.3995510556916497 ],
						[ 103.87079724329715, 1.3992544779878744 ],
						[ 103.8710392348144, 1.39908520882367 ],
						[ 103.87111446463676, 1.3988983877358385 ],
						[ 103.87142430063182, 1.3982194939238493 ],
						[ 103.87170566212501, 1.3978108515952847 ],
						[ 103.87181858436726, 1.397608662010074 ],
						[ 103.87190513277066, 1.39737697341043 ],
						[ 103.87203323843907, 1.3969093256370235 ],
						[ 103.87220240078608, 1.3959310398672888 ],
						[ 103.87198680329587, 1.3950870576053884 ],
						[ 103.87292108376026, 1.3950481190576223 ],
						[ 103.87405512349106, 1.394937766287797 ],
						[ 103.87407213464314, 1.395155008661609 ],
						[ 103.8742338665953, 1.3972979828082441 ],
						[ 103.87429097686262, 1.3979254457193457 ],
						[ 103.87392688438806, 1.3979165829851303 ],
						[ 103.87380992972427, 1.3981852380533666 ],
						[ 103.87365940214643, 1.3985002070732835 ],
						[ 103.87346083779228, 1.3990037213976472 ],
						[ 103.87333775901811, 1.3989967852330785 ],
						[ 103.87302034547406, 1.3997128623305335 ],
						[ 103.87245175513148, 1.399472988528723 ],
						[ 103.87230435967577, 1.3997835992833012 ],
						[ 103.8722654905403, 1.4001045821756049 ],
						[ 103.87230310594522, 1.4006415385348656 ]
					]
				]
			},
			"properties" : {
				"OBJECTID" : 523846,
				"LOCALITY" : "Jln Kayu / Jln Tari Dulang, Payong, Piring, Serimpi, Zapin",
				"CASE_SIZE" : 49,
				"NAME" : "Dengue_Cluster",
				"HYPERLINK" : "https://www.nea.gov.sg/dengue-zika/dengue/dengue-clusters",
				"HOMES" : "Flower pot, Planter box, Vase, Pail, Flower pot plate, Domestic container, Toilet bowl, Ornamental container, Barbeque pit",
				"PUBLIC_PLACES" : null,
				"CONSTRUCTION_SITES" : null,
				"INC_CRC" : "F00874F75E8117CE",
				"FMEL_UPD_D" : "20260814160603",
				"SHAPE.AREA" : 156554.73787058,
				"SHAPE.LEN" : 2013.45408315786
			}
		},
		{
			"type" : "Feature",
			"geometry" : {
				"type" : "Polygon",
				"coordinates" : [
					[
						[ 103.72485197182857, 1.3385267223140478 ],
						[ 103.72450870122515, 1.33832704358123 ],
						[ 103.72413504149253, 1.3389802409347944 ],
						[ 103.72384722082275, 1.3394902895718876 ],
						[ 103.7234655390837, 1.3401281041191393 ],
						[ 103.722884484758, 1.339730444864506 ],
						[ 103.72315662946072, 1.3393200238793375 ],
						[ 103.72283861891498, 1.3391457423739914 ],
						[ 103.72287809236327, 1.3390493372780898 ],
						[ 103.72207191597299, 1.338545160832777 ],
						[ 103.7222181806563, 1.3380804335437764 ],
						[ 103.72177290451712, 1.3377384673016224 ],
						[ 103.72232669080397, 1.3370115159973286 ],
						[ 103.72261525611911, 1.3372086051452812 ],
						[ 103.72340768695794, 1.3359760739853748 ],
						[ 103.72230572435731, 1.3352797497524365 ],
						[ 103.7227616650435, 1.3342356111653182 ],
						[ 103.72296423955613, 1.333779730092625 ],
						[ 103.72325929110072, 1.332826996189432 ],
						[ 103.72361719468842, 1.332926144903242 ],
						[ 103.72422425132498, 1.3329269724048542 ],
						[ 103.72447318809517, 1.3329031309187924 ],
						[ 103.7248384304971, 1.3328120135810257 ],
						[ 103.72499052237083, 1.3327563956672144 ],
						[ 103.72507442957895, 1.3354259286280445 ],
						[ 103.72591844115556, 1.335434629685606 ],
						[ 103.7259027789603, 1.3366841149236761 ],
						[ 103.7258557925763, 1.3369312264091346 ],
						[ 103.7257371468252, 1.337434069577014 ],
						[ 103.72565793182409, 1.3376408477591726 ],
						[ 103.72518317827534, 1.3385460343303983 ],
						[ 103.72485197182857, 1.3385267223140478 ]
					]
				]
			},
			"properties" : {
				"OBJECTID" : 523847,
				"LOCALITY" : "Ho Ching Rd (Blk 119) / Tah Ching Rd (Blk 322, 329, 330) / Yuan Ching Rd / Yuan Ching Rd (Lakeside Twr)",
				"CASE_SIZE" : 29,
				"NAME" : "Dengue_Cluster",
				"HYPERLINK" : "https://www.nea.gov.sg/dengue-zika/dengue/dengue-clusters",
				"HOMES" : "Overturned plastic stool, Glass jar, Flower pot plate, Vase, Domestic container, Mop pail, Plastic basin, Pail",
				"PUBLIC_PLACES" : "Closed perimeter drain, Gully trap",
				"CONSTRUCTION_SITES" : "Canvas sheet, Common toilet, Scupper drain, Water tank",
				"INC_CRC" : "E178CD1659954A57",
				"FMEL_UPD_D" : "20260814160603",
				"SHAPE.AREA" : 211355.10759509,
				"SHAPE.LEN" : 2403.63156342797
			}
		},
		{
			"type" : "Feature",
			"geometry" : {
				"type" : "Polygon",
				"coordinates" : [
					[
						[ 103.85060016907707, 1.350427039730715 ],
						[ 103.85053426544124, 1.3503816483433226 ],
						[ 103.85038712063508, 1.3501664685401402 ],
						[ 103.84969862397567, 1.3472552573466208 ],
						[ 103.85155848667779, 1.3468042583293063 ],
						[ 103.85177148823011, 1.346587824225638 ],
						[ 103.85199082856363, 1.346892077865518 ],
						[ 103.85224767149359, 1.34651780194852 ],
						[ 103.85242855204758, 1.346413021773101 ],
						[ 103.85272131986524, 1.3463313942292618 ],
						[ 103.85424035142002, 1.3459730868906519 ],
						[ 103.85467891705142, 1.3478585706926873 ],
						[ 103.85467731682735, 1.3482845606992395 ],
						[ 103.85381190349582, 1.349699086323723 ],
						[ 103.85320959549769, 1.3494268632024413 ],
						[ 103.8528621936243, 1.34982285645032 ],
						[ 103.85217783534665, 1.3500325279146193 ],
						[ 103.85135611013648, 1.3501362602573186 ],
						[ 103.85098514928391, 1.3499028546854428 ],
						[ 103.85060016907707, 1.350427039730715 ]
					]
				]
			},
			"properties" : {
				"OBJECTID" : 523854,
				"LOCALITY" : "Bishan St 13 (Blk 177, 179, 193)",
				"CASE_SIZE" : 3,
				"NAME" : "Dengue_Cluster",
				"HYPERLINK" : "https://www.nea.gov.sg/dengue-zika/dengue/dengue-clusters",
				"HOMES" : null,
				"PUBLIC_PLACES" : null,
				"CONSTRUCTION_SITES" : null,
				"INC_CRC" : "D3FAD15442D4CC21",
				"FMEL_UPD_D" : "20260812170437",
				"SHAPE.AREA" : 180761.575291045,
				"SHAPE.LEN" : 1807.137808924
			}
		},
		{
			"type" : "Feature",
			"geometry" : {
				"type" : "MultiPolygon",
				"coordinates" : [
					[
						[
							[ 103.85482280747436, 1.374661895708433 ],
							[ 103.85481491337644, 1.3746460051967822 ],
							[ 103.85482776571214, 1.3746526042258738 ],
							[ 103.85482280747436, 1.374661895708433 ]
						]
					],
					[
						[
							[ 103.85482776571214, 1.3746526042258738 ],
							[ 103.85505174629114, 1.3742328397404544 ],
							[ 103.85445965163315, 1.3738753001782438 ],
							[ 103.85393861041146, 1.3738911953404287 ],
							[ 103.8538754506949, 1.3734700868374514 ],
							[ 103.85361807871513, 1.3724645129229105 ],
							[ 103.85425627400403, 1.372293203626816 ],
							[ 103.85456573937829, 1.372207390285077 ],
							[ 103.85466489559336, 1.3721829173019762 ],
							[ 103.85503593792068, 1.3720637323069438 ],
							[ 103.8554069810115, 1.3720319477241754 ],
							[ 103.85545434646491, 1.3718333109215657 ],
							[ 103.85813849823268, 1.3723259024606156 ],
							[ 103.85955036619906, 1.3727883122223878 ],
							[ 103.85875369008905, 1.374655642065026 ],
							[ 103.85807033114891, 1.3763749025287324 ],
							[ 103.8559836350703, 1.3758101606273252 ],
							[ 103.8560938366801, 1.3751227198072398 ],
							[ 103.85541490028604, 1.3746936723431922 ],
							[ 103.85520174867342, 1.3748446371171616 ],
							[ 103.85482776571214, 1.3746526042258738 ]
						]
					]
				]
			},
			"properties" : {
				"OBJECTID" : 523855,
				"LOCALITY" : "Ang Mo Kio Ave 10 (Blk 545, 546)",
				"CASE_SIZE" : 2,
				"NAME" : "Dengue_Cluster",
				"HYPERLINK" : "https://www.nea.gov.sg/dengue-zika/dengue/dengue-clusters",
				"HOMES" : null,
				"PUBLIC_PLACES" : null,
				"CONSTRUCTION_SITES" : null,
				"INC_CRC" : "C66223D4526E7513",
				"FMEL_UPD_D" : "20260812170437",
				"SHAPE.AREA" : 198501.40278772,
				"SHAPE.LEN" : 1962.90692401257
			}
		},
		{
			"type" : "Feature",
			"geometry" : {
				"type" : "Polygon",
				"coordinates" : [
					[
						[ 103.87797697722583, 1.3965892240059956 ],
						[ 103.87794712945822, 1.396322865921401 ],
						[ 103.87797725626174, 1.3962810710768354 ],
						[ 103.8783438496967, 1.3962200647042962 ],
						[ 103.87837823864159, 1.3964712194352016 ],
						[ 103.87893073860587, 1.3964661451830847 ],
						[ 103.87893831135379, 1.3965342174024815 ],
						[ 103.87907508792568, 1.3984436386854004 ],
						[ 103.87572170140196, 1.3987191848161207 ],
						[ 103.87565383614721, 1.397117337955517 ],
						[ 103.87722061891196, 1.3969750128119882 ],
						[ 103.87719705650505, 1.3966447395897088 ],
						[ 103.87797697722583, 1.3965892240059956 ]
					]
				]
			},
			"properties" : {
				"OBJECTID" : 523856,
				"LOCALITY" : "Fernvale Lk (Blk 467B)",
				"CASE_SIZE" : 2,
				"NAME" : "Dengue_Cluster",
				"HYPERLINK" : "https://www.nea.gov.sg/dengue-zika/dengue/dengue-clusters",
				"HOMES" : null,
				"PUBLIC_PLACES" : null,
				"CONSTRUCTION_SITES" : null,
				"INC_CRC" : "405E44B5F7D9E5E2",
				"FMEL_UPD_D" : "20260812170437",
				"SHAPE.AREA" : 75307.276165645,
				"SHAPE.LEN" : 1235.88842014618
			}
		},
		{
			"type" : "Feature",
			"geometry" : {
				"type" : "Polygon",
				"coordinates" : [
					[
						[ 103.74164410266529, 1.3431482564296215 ],
						[ 103.74153428070798, 1.3432935925100953 ],
						[ 103.74129983105287, 1.3434438155651025 ],
						[ 103.7403296584956, 1.3434363112708907 ],
						[ 103.74034243496997, 1.3431072980652639 ],
						[ 103.7403471537936, 1.3428566078373172 ],
						[ 103.7403719528863, 1.3424824429434283 ],
						[ 103.74063839345276, 1.342176885945039 ],
						[ 103.74062603288333, 1.3413412510646305 ],
						[ 103.74031623236034, 1.3413162950863609 ],
						[ 103.74032246769742, 1.340262398258598 ],
						[ 103.74032472743058, 1.339479894370536 ],
						[ 103.74131386017147, 1.339597919709877 ],
						[ 103.74165848753893, 1.3395066182368427 ],
						[ 103.7420511886337, 1.3392453823093622 ],
						[ 103.74221848683449, 1.3395079035536182 ],
						[ 103.74265838401153, 1.3401190561832441 ],
						[ 103.74436221906204, 1.3422955102884713 ],
						[ 103.74356290326115, 1.3429565063107836 ],
						[ 103.74332126641758, 1.3427070531512808 ],
						[ 103.74307037792887, 1.3423876091374218 ],
						[ 103.74286499846558, 1.3424446234184644 ],
						[ 103.74252508051583, 1.3427427820485558 ],
						[ 103.74231136108962, 1.3428590525672432 ],
						[ 103.74163394001589, 1.342857415514109 ],
						[ 103.74164410266529, 1.3431482564296215 ]
					]
				]
			},
			"properties" : {
				"OBJECTID" : 523857,
				"LOCALITY" : "Jurong East Ave 1 (Blk 240B) / Jurong East St 24 (Blk 245)",
				"CASE_SIZE" : 2,
				"NAME" : "Dengue_Cluster",
				"HYPERLINK" : "https://www.nea.gov.sg/dengue-zika/dengue/dengue-clusters",
				"HOMES" : null,
				"PUBLIC_PLACES" : null,
				"CONSTRUCTION_SITES" : null,
				"INC_CRC" : "37CCC342BCA0C552",
				"FMEL_UPD_D" : "20260811154729",
				"SHAPE.AREA" : 128672.836007925,
				"SHAPE.LEN" : 1674.10047874663
			}
		},
		{
			"type" : "Feature",
			"geometry" : {
				"type" : "Polygon",
				"coordinates" : [
					[
						[ 103.76311429731895, 1.3756669735520088 ],
						[ 103.76464414626936, 1.3759575207457309 ],
						[ 103.76519531620865, 1.3761071192941499 ],
						[ 103.7657381324404, 1.3770138723923484 ],
						[ 103.76599979887308, 1.377545790340741 ],
						[ 103.76587755631857, 1.3780511325783191 ],
						[ 103.76544745852638, 1.378224381876302 ],
						[ 103.76478839308473, 1.3781611677637955 ],
						[ 103.76345939976225, 1.377840259813342 ],
						[ 103.76270566661911, 1.3776435872147565 ],
						[ 103.76273463464136, 1.3775269432694928 ],
						[ 103.76276630924255, 1.3774380705998426 ],
						[ 103.76302906876691, 1.3761549909239088 ],
						[ 103.76311429731895, 1.3756669735520088 ]
					]
				]
			},
			"properties" : {
				"OBJECTID" : 523858,
				"LOCALITY" : "Petir Rd (Maysprings)",
				"CASE_SIZE" : 2,
				"NAME" : "Dengue_Cluster",
				"HYPERLINK" : "https://www.nea.gov.sg/dengue-zika/dengue/dengue-clusters",
				"HOMES" : null,
				"PUBLIC_PLACES" : null,
				"CONSTRUCTION_SITES" : null,
				"INC_CRC" : "5766EA3898931F20",
				"FMEL_UPD_D" : "20260806153329",
				"SHAPE.AREA" : 72505.407760735,
				"SHAPE.LEN" : 1064.35455231184
			}
		}
	]
}